CCSDS_OMM_VERS = 2.0
CREATION_DATE  = 
ORIGINATOR     = 

OBJECT_NAME    = TWILIGHT B
OBJECT_ID      = 2026-004B
CENTER_NAME    = EARTH
REF_FRAME      = TEME
TIME_SYSTEM    = UTC
MEAN_ELEMENT_THEORY = SGP/SGP4

EPOCH          = 2026-02-07T06:14:31.861536
MEAN_MOTION    = 14.87195609
ECCENTRICITY   = .00082226
INCLINATION    = 97.8007
RA_OF_ASC_NODE = 38.9501
ARG_OF_PERICENTER = 193.1764
MEAN_ANOMALY   = 166.9238

EPHEMERIS_TYPE = 0
CLASSIFICATION_TYPE = U
NORAD_CAT_ID   = 67364
ELEMENT_SET_NO = 999
REV_AT_EPOCH   = 397
BSTAR          = .86647506E-3
MEAN_MOTION_DOT = .7753E-4
MEAN_MOTION_DDOT = 0

CCSDS_OMM_VERS = 2.0
CREATION_DATE  = 
ORIGINATOR     = 

OBJECT_NAME    = TWILIGHT C
OBJECT_ID      = 2026-004C
CENTER_NAME    = EARTH
REF_FRAME      = TEME
TIME_SYSTEM    = UTC
MEAN_ELEMENT_THEORY = SGP/SGP4

EPOCH          = 2026-02-07T06:13:59.366496
MEAN_MOTION    = 14.87216572
ECCENTRICITY   = .00078023
INCLINATION    = 97.7983
RA_OF_ASC_NODE = 38.9460
ARG_OF_PERICENTER = 198.4140
MEAN_ANOMALY   = 161.6794

EPHEMERIS_TYPE = 0
CLASSIFICATION_TYPE = U
NORAD_CAT_ID   = 67365
ELEMENT_SET_NO = 999
REV_AT_EPOCH   = 397
BSTAR          = .86966951E-3
MEAN_MOTION_DOT = .7785E-4
MEAN_MOTION_DDOT = 0

CCSDS_OMM_VERS = 2.0
CREATION_DATE  = 
ORIGINATOR     = 

OBJECT_NAME    = TWILIGHT D
OBJECT_ID      = 2026-004D
CENTER_NAME    = EARTH
REF_FRAME      = TEME
TIME_SYSTEM    = UTC
MEAN_ELEMENT_THEORY = SGP/SGP4

EPOCH          = 2026-02-07T06:13:45.357600
MEAN_MOTION    = 14.87153223
ECCENTRICITY   = .00083825
INCLINATION    = 97.8040
RA_OF_ASC_NODE = 38.9570
ARG_OF_PERICENTER = 187.3873
MEAN_ANOMALY   = 172.7221

EPHEMERIS_TYPE = 0
CLASSIFICATION_TYPE = U
NORAD_CAT_ID   = 67366
ELEMENT_SET_NO = 999
REV_AT_EPOCH   = 397
BSTAR          = .52216223E-3
MEAN_MOTION_DOT = .4644E-4
MEAN_MOTION_DDOT = 0

CCSDS_OMM_VERS = 2.0
CREATION_DATE  = 
ORIGINATOR     = 

OBJECT_NAME    = TWILIGHT E
OBJECT_ID      = 2026-004E
CENTER_NAME    = EARTH
REF_FRAME      = TEME
TIME_SYSTEM    = UTC
MEAN_ELEMENT_THEORY = SGP/SGP4

EPOCH          = 2026-02-07T06:11:01.476672
MEAN_MOTION    = 14.87335003
ECCENTRICITY   = .0007248
INCLINATION    = 97.7970
RA_OF_ASC_NODE = 38.9463
ARG_OF_PERICENTER = 199.8594
MEAN_ANOMALY   = 160.2342

EPHEMERIS_TYPE = 0
CLASSIFICATION_TYPE = U
NORAD_CAT_ID   = 67367
ELEMENT_SET_NO = 999
REV_AT_EPOCH   = 397
BSTAR          = .80709618E-3
MEAN_MOTION_DOT = .7241E-4
MEAN_MOTION_DDOT = 0

CCSDS_OMM_VERS = 2.0
CREATION_DATE  = 
ORIGINATOR     = 

OBJECT_NAME    = TWILIGHT F
OBJECT_ID      = 2026-004F
CENTER_NAME    = EARTH
REF_FRAME      = TEME
TIME_SYSTEM    = UTC
MEAN_ELEMENT_THEORY = SGP/SGP4

EPOCH          = 2026-02-07T06:10:06.645504
MEAN_MOTION    = 14.87356875
ECCENTRICITY   = .00077516
INCLINATION    = 97.8031
RA_OF_ASC_NODE = 38.9592
ARG_OF_PERICENTER = 188.3846
MEAN_ANOMALY   = 171.7242

EPHEMERIS_TYPE = 0
CLASSIFICATION_TYPE = U
NORAD_CAT_ID   = 67368
ELEMENT_SET_NO = 999
REV_AT_EPOCH   = 397
BSTAR          = .75211477E-3
MEAN_MOTION_DOT = .6748E-4
MEAN_MOTION_DDOT = 0

CCSDS_OMM_VERS = 2.0
CREATION_DATE  = 
ORIGINATOR     = 

OBJECT_NAME    = TWILIGHT G
OBJECT_ID      = 2026-004G
CENTER_NAME    = EARTH
REF_FRAME      = TEME
TIME_SYSTEM    = UTC
MEAN_ELEMENT_THEORY = SGP/SGP4

EPOCH          = 2026-02-07T06:09:24.417504
MEAN_MOTION    = 14.87289148
ECCENTRICITY   = .00066091
INCLINATION    = 97.7962
RA_OF_ASC_NODE = 38.9465
ARG_OF_PERICENTER = 202.0031
MEAN_ANOMALY   = 158.0902

EPHEMERIS_TYPE = 0
CLASSIFICATION_TYPE = U
NORAD_CAT_ID   = 67369
ELEMENT_SET_NO = 999
REV_AT_EPOCH   = 397
BSTAR          = .43372423E-3
MEAN_MOTION_DOT = .386E-4
MEAN_MOTION_DDOT = 0

CCSDS_OMM_VERS = 2.0
CREATION_DATE  = 
ORIGINATOR     = 

OBJECT_NAME    = TWILIGHT H
OBJECT_ID      = 2026-004H
CENTER_NAME    = EARTH
REF_FRAME      = TEME
TIME_SYSTEM    = UTC
MEAN_ELEMENT_THEORY = SGP/SGP4

EPOCH          = 2026-02-07T06:07:13.885248
MEAN_MOTION    = 14.87472272
ECCENTRICITY   = .00063367
INCLINATION    = 97.7960
RA_OF_ASC_NODE = 38.9476
ARG_OF_PERICENTER = 200.9913
MEAN_ANOMALY   = 159.1044

EPHEMERIS_TYPE = 0
CLASSIFICATION_TYPE = U
NORAD_CAT_ID   = 67370
ELEMENT_SET_NO = 999
REV_AT_EPOCH   = 397
BSTAR          = .81825463E-3
MEAN_MOTION_DOT = .7366E-4
MEAN_MOTION_DDOT = 0

CCSDS_OMM_VERS = 2.0
CREATION_DATE  = 
ORIGINATOR     = 

OBJECT_NAME    = TWILIGHT J
OBJECT_ID      = 2026-004J
CENTER_NAME    = EARTH
REF_FRAME      = TEME
TIME_SYSTEM    = UTC
MEAN_ELEMENT_THEORY = SGP/SGP4

EPOCH          = 2026-02-07T05:57:53.976096
MEAN_MOTION    = 14.87894372
ECCENTRICITY   = .00057813
INCLINATION    = 97.8002
RA_OF_ASC_NODE = 38.9640
ARG_OF_PERICENTER = 184.4295
MEAN_ANOMALY   = 175.6871

EPHEMERIS_TYPE = 0
CLASSIFICATION_TYPE = U
NORAD_CAT_ID   = 67371
ELEMENT_SET_NO = 999
REV_AT_EPOCH   = 397
BSTAR          = .9275361E-3
MEAN_MOTION_DOT = .8445E-4
MEAN_MOTION_DDOT = 0

CCSDS_OMM_VERS = 2.0
CREATION_DATE  = 
ORIGINATOR     = 

OBJECT_NAME    = ICEYE-X63
OBJECT_ID      = 2026-004K
CENTER_NAME    = EARTH
REF_FRAME      = TEME
TIME_SYSTEM    = UTC
MEAN_ELEMENT_THEORY = SGP/SGP4

EPOCH          = 2026-02-07T07:28:15.061152
MEAN_MOTION    = 14.87986922
ECCENTRICITY   = .00040034
INCLINATION    = 97.7982
RA_OF_ASC_NODE = 39.0309
ARG_OF_PERICENTER = 177.9410
MEAN_ANOMALY   = 182.1824

EPHEMERIS_TYPE = 0
CLASSIFICATION_TYPE = U
NORAD_CAT_ID   = 67372
ELEMENT_SET_NO = 999
REV_AT_EPOCH   = 398
BSTAR          = .44524616E-3
MEAN_MOTION_DOT = .4032E-4
MEAN_MOTION_DDOT = 0

CCSDS_OMM_VERS = 2.0
CREATION_DATE  = 
ORIGINATOR     = 

OBJECT_NAME    = ICEYE-X64
OBJECT_ID      = 2026-004L
CENTER_NAME    = EARTH
REF_FRAME      = TEME
TIME_SYSTEM    = UTC
MEAN_ELEMENT_THEORY = SGP/SGP4

EPOCH          = 2026-02-07T06:01:33.768192
MEAN_MOTION    = 14.87587191
ECCENTRICITY   = .00055037
INCLINATION    = 97.7995
RA_OF_ASC_NODE = 38.9592
ARG_OF_PERICENTER = 190.6891
MEAN_ANOMALY   = 169.4210

EPHEMERIS_TYPE = 0
CLASSIFICATION_TYPE = U
NORAD_CAT_ID   = 67373
ELEMENT_SET_NO = 999
REV_AT_EPOCH   = 397
BSTAR          = .4031718E-3
MEAN_MOTION_DOT = .361E-4
MEAN_MOTION_DDOT = 0

CCSDS_OMM_VERS = 2.0
CREATION_DATE  = 
ORIGINATOR     = 

OBJECT_NAME    = AETHER-3
OBJECT_ID      = 2026-004M
CENTER_NAME    = EARTH
REF_FRAME      = TEME
TIME_SYSTEM    = UTC
MEAN_ELEMENT_THEORY = SGP/SGP4

EPOCH          = 2026-02-07T07:29:45.924576
MEAN_MOTION    = 14.87944972
ECCENTRICITY   = .00042761
INCLINATION    = 97.7980
RA_OF_ASC_NODE = 39.0281
ARG_OF_PERICENTER = 178.6948
MEAN_ANOMALY   = 181.4281

EPHEMERIS_TYPE = 0
CLASSIFICATION_TYPE = U
NORAD_CAT_ID   = 67374
ELEMENT_SET_NO = 999
REV_AT_EPOCH   = 398
BSTAR          = .33450273E-3
MEAN_MOTION_DOT = .3012E-4
MEAN_MOTION_DDOT = 0

CCSDS_OMM_VERS = 2.0
CREATION_DATE  = 
ORIGINATOR     = 

OBJECT_NAME    = AETHER-4
OBJECT_ID      = 2026-004N
CENTER_NAME    = EARTH
REF_FRAME      = TEME
TIME_SYSTEM    = UTC
MEAN_ELEMENT_THEORY = SGP/SGP4

EPOCH          = 2026-02-07T05:52:16.305888
MEAN_MOTION    = 14.87964890
ECCENTRICITY   = .00048685
INCLINATION    = 97.8017
RA_OF_ASC_NODE = 38.9731
ARG_OF_PERICENTER = 174.8688
MEAN_ANOMALY   = 185.2580

EPHEMERIS_TYPE = 0
CLASSIFICATION_TYPE = U
NORAD_CAT_ID   = 67375
ELEMENT_SET_NO = 999
REV_AT_EPOCH   = 397
BSTAR          = .30859004E-3
MEAN_MOTION_DOT = .2776E-4
MEAN_MOTION_DDOT = 0

CCSDS_OMM_VERS = 2.0
CREATION_DATE  = 
ORIGINATOR     = 

OBJECT_NAME    = AETHER-5
OBJECT_ID      = 2026-004P
CENTER_NAME    = EARTH
REF_FRAME      = TEME
TIME_SYSTEM    = UTC
MEAN_ELEMENT_THEORY = SGP/SGP4

EPOCH          = 2026-02-07T05:56:07.599552
MEAN_MOTION    = 14.87806762
ECCENTRICITY   = .00051856
INCLINATION    = 97.8013
RA_OF_ASC_NODE = 38.9684
ARG_OF_PERICENTER = 180.9793
MEAN_ANOMALY   = 179.1415

EPHEMERIS_TYPE = 0
CLASSIFICATION_TYPE = U
NORAD_CAT_ID   = 67376
ELEMENT_SET_NO = 999
REV_AT_EPOCH   = 397
BSTAR          = .32918978E-3
MEAN_MOTION_DOT = .2953E-4
MEAN_MOTION_DDOT = 0

CCSDS_OMM_VERS = 2.0
CREATION_DATE  = 
ORIGINATOR     = 

OBJECT_NAME    = AETHER-6
OBJECT_ID      = 2026-004Q
CENTER_NAME    = EARTH
REF_FRAME      = TEME
TIME_SYSTEM    = UTC
MEAN_ELEMENT_THEORY = SGP/SGP4

EPOCH          = 2026-02-05T15:08:06.257472
MEAN_MOTION    = 14.87287400
ECCENTRICITY   = .0004629
INCLINATION    = 97.8013
RA_OF_ASC_NODE = 37.3851
ARG_OF_PERICENTER = 129.8525
MEAN_ANOMALY   = 230.3099

EPHEMERIS_TYPE = 0
CLASSIFICATION_TYPE = U
NORAD_CAT_ID   = 67377
ELEMENT_SET_NO = 999
REV_AT_EPOCH   = 372
BSTAR          = -.28936E-1
MEAN_MOTION_DOT = -.251653E-2
MEAN_MOTION_DDOT = 0

CCSDS_OMM_VERS = 2.0
CREATION_DATE  = 
ORIGINATOR     = 

OBJECT_NAME    = AETHER-7
OBJECT_ID      = 2026-004R
CENTER_NAME    = EARTH
REF_FRAME      = TEME
TIME_SYSTEM    = UTC
MEAN_ELEMENT_THEORY = SGP/SGP4

EPOCH          = 2026-02-07T05:57:59.681952
MEAN_MOTION    = 14.87737642
ECCENTRICITY   = .00045977
INCLINATION    = 97.7987
RA_OF_ASC_NODE = 38.9595
ARG_OF_PERICENTER = 189.1296
MEAN_ANOMALY   = 170.9838

EPHEMERIS_TYPE = 0
CLASSIFICATION_TYPE = U
NORAD_CAT_ID   = 67378
ELEMENT_SET_NO = 999
REV_AT_EPOCH   = 396
BSTAR          = .35408298E-3
MEAN_MOTION_DOT = .3175E-4
MEAN_MOTION_DDOT = 0

